[
    {
        "Altitude(m)": 624792.7856148747,
        "Argument of Periapsis(deg)": 0.0,
        "Eccentricity": 0.0,
        "Inclination(deg)": 60.0,
        "Latitude(deg)": -59.14712862899336,
        "Longitude(deg)": -15.973439282311714,
        "Mean Anomaly(deg)": -98.18180000000002,
        "RAAN(deg)": 190.0,
        "Satellite Name": "Test1 852",
        "Satellite Number": 852,
        "Semi-Major Axis(m)": 6980739.136638005,
        "Time(s)": 0
    },
    {
        "Altitude(m)": 624842.1769961339,
        "Argument of Periapsis(deg)": 0.00010418945913296404,
        "Eccentricity": 0.0,
        "Inclination(deg)": 60.0,
        "Latitude(deg)": -59.28921034368629,
        "Longitude(deg)": -14.84393299446097,
        "Mean Anomaly(deg)": -97.56169385453816,
        "RAAN(deg)": 189.99957995086027,
        "Satellite Name": "Test1 852",
        "Satellite Number": 852,
        "Semi-Major Axis(m)": 6980739.136638005,
        "Time(s)": 10
    },
    {
        "Altitude(m)": 624887.7441144724,
        "Argument of Periapsis(deg)": 0.0002083789182659281,
        "Eccentricity": 0.0,
        "Inclination(deg)": 60.0,
        "Latitude(deg)": -59.420681176651165,
        "Longitude(deg)": -13.705006249382315,
        "Mean Anomaly(deg)": -96.94158770907633,
        "RAAN(deg)": 189.99915990172053,
        "Satellite Name": "Test1 852",
        "Satellite Number": 852,
        "Semi-Major Axis(m)": 6980739.136638005,
        "Time(s)": 20
    },
    {
        "Altitude(m)": 624929.4690068689,
        "Argument of Periapsis(deg)": 0.00031256837739889213,
        "Eccentricity": 0.0,
        "Inclination(deg)": 60.0,
        "Latitude(deg)": -59.541403827970136,
        "Longitude(deg)": -12.557281360664582,
        "Mean Anomaly(deg)": -96.32148156361448,
        "RAAN(deg)": 189.9987398525808,
        "Satellite Name": "Test1 852",
        "Satellite Number": 852,
        "Semi-Major Axis(m)": 6980739.136638005,
        "Time(s)": 30
    },
    {
        "Altitude(m)": 624967.3352214602,
        "Argument of Periapsis(deg)": 0.0004167578365318562,
        "Eccentricity": 0.0,
        "Inclination(deg)": 60.0,
        "Latitude(deg)": -59.65125013128127,
        "Longitude(deg)": -11.401415626490108,
        "Mean Anomaly(deg)": -95.70137541815267,
        "RAAN(deg)": 189.99831980344103,
        "Satellite Name": "Test1 852",
        "Satellite Number": 852,
        "Semi-Major Axis(m)": 6980739.136638005,
        "Time(s)": 40
    },
    {
        "Altitude(m)": 625001.3278244899,
        "Argument of Periapsis(deg)": 0.0005209472956648203,
        "Eccentricity": 0.0,
        "Inclination(deg)": 60.0,
        "Latitude(deg)": -59.75010169286703,
        "Longitude(deg)": -10.238100492851261,
        "Mean Anomaly(deg)": -95.0812692726908,
        "RAAN(deg)": 189.9978997543013,
        "Satellite Name": "Test1 852",
        "Satellite Number": 852,
        "Semi-Major Axis(m)": 6980739.136638005,
        "Time(s)": 50
    },
    {
        "Altitude(m)": 625031.4334065982,
        "Argument of Periapsis(deg)": 0.0006251367547977843,
        "Eccentricity": 0.0,
        "Inclination(deg)": 60.0,
        "Latitude(deg)": -59.83785049766475,
        "Longitude(deg)": -9.068058879193025,
        "Mean Anomaly(deg)": -94.46116312722903,
        "RAAN(deg)": 189.99747970516157,
        "Satellite Name": "Test1 852",
        "Satellite Number": 852,
        "Semi-Major Axis(m)": 6980739.136638005,
        "Time(s)": 60
    },
    {
        "Altitude(m)": 625057.6400884738,
        "Argument of Periapsis(deg)": 0.0007293262139307483,
        "Eccentricity": 0.0,
        "Inclination(deg)": 60.0,
        "Latitude(deg)": -59.914399475366515,
        "Longitude(deg)": -7.8920421895953705,
        "Mean Anomaly(deg)": -93.84105698176717,
        "RAAN(deg)": 189.99705965602183,
        "Satellite Name": "Test1 852",
        "Satellite Number": 852,
        "Semi-Major Axis(m)": 6980739.136638005,
        "Time(s)": 70
    },
    {
        "Altitude(m)": 625079.9375258487,
        "Argument of Periapsis(deg)": 0.0008335156730637124,
        "Eccentricity": 0.0,
        "Inclination(deg)": 60.0,
        "Latitude(deg)": -59.97966301998046,
        "Longitude(deg)": -6.710828538274319,
        "Mean Anomaly(deg)": -93.2209508363054,
        "RAAN(deg)": 189.99663960688207,
        "Satellite Name": "Test1 852",
        "Satellite Number": 852,
        "Semi-Major Axis(m)": 6980739.136638005,
        "Time(s)": 80
    },
    {
        "Altitude(m)": 625098.3169138691,
        "Argument of Periapsis(deg)": 0.0009377051321966765,
        "Eccentricity": 0.0,
        "Inclination(deg)": 60.0,
        "Latitude(deg)": -60.033567456571845,
        "Longitude(deg)": -5.525219185051458,
        "Mean Anomaly(deg)": -92.60084469084354,
        "RAAN(deg)": 189.99621955774234,
        "Satellite Name": "Test1 852",
        "Satellite Number": 852,
        "Semi-Major Axis(m)": 6980739.136638005,
        "Time(s)": 90
    },
    {
        "Altitude(m)": 625112.7709907816,
        "Argument of Periapsis(deg)": 0.0010418945913296407,
        "Eccentricity": 0.0,
        "Inclination(deg)": 60.0,
        "Latitude(deg)": -60.07605144939402,
        "Longitude(deg)": -4.336034720367621,
        "Mean Anomaly(deg)": -91.98073854538167,
        "RAAN(deg)": 189.99579950860257,
        "Satellite Name": "Test1 852",
        "Satellite Number": 852,
        "Semi-Major Axis(m)": 6980739.136638005,
        "Time(s)": 100
    },
    {
        "Altitude(m)": 625123.2940410101,
        "Argument of Periapsis(deg)": 0.0011460840504626045,
        "Eccentricity": 0.0,
        "Inclination(deg)": 60.0,
        "Latitude(deg)": -60.10706634623014,
        "Longitude(deg)": -3.14411254435044,
        "Mean Anomaly(deg)": -91.36063239991987,
        "RAAN(deg)": 189.9953794594628,
        "Satellite Name": "Test1 852",
        "Satellite Number": 852,
        "Semi-Major Axis(m)": 6980739.136638005,
        "Time(s)": 110
    },
    {
        "Altitude(m)": 625129.8818975505,
        "Argument of Periapsis(deg)": 0.0012502735095955685,
        "Eccentricity": 0.0,
        "Inclination(deg)": 60.0,
        "Latitude(deg)": -60.12657645448424,
        "Longitude(deg)": -1.9503026502556127,
        "Mean Anomaly(deg)": -90.74052625445805,
        "RAAN(deg)": 189.9949594103231,
        "Satellite Name": "Test1 852",
        "Satellite Number": 852,
        "Semi-Major Axis(m)": 6980739.136638005,
        "Time(s)": 120
    },
    {
        "Altitude(m)": 625132.5319437373,
        "Argument of Periapsis(deg)": 0.0013544629687285324,
        "Eccentricity": 0.0,
        "Inclination(deg)": 60.0,
        "Latitude(deg)": -60.134559245396915,
        "Longitude(deg)": -0.7554632650053933,
        "Mean Anomaly(deg)": -90.12042010899617,
        "RAAN(deg)": 189.99453936118337,
        "Satellite Name": "Test1 852",
        "Satellite Number": 852,
        "Semi-Major Axis(m)": 6980739.136638005,
        "Time(s)": 130
    },
    {
        "Altitude(m)": 625131.2431143429,
        "Argument of Periapsis(deg)": 0.0014586524278614966,
        "Eccentricity": 0.0,
        "Inclination(deg)": 60.0,
        "Latitude(deg)": -60.13100548367393,
        "Longitude(deg)": 0.4395420974536305,
        "Mean Anomaly(deg)": -89.50031396353435,
        "RAAN(deg)": 189.9941193120436,
        "Satellite Name": "Test1 852",
        "Satellite Number": 852,
        "Semi-Major Axis(m)": 6980739.136638005,
        "Time(s)": 140
    },
    {
        "Altitude(m)": 625126.0158960212,
        "Argument of Periapsis(deg)": 0.0015628418869944607,
        "Eccentricity": 0.0,
        "Inclination(deg)": 60.0,
        "Latitude(deg)": -60.11591928078602,
        "Longitude(deg)": 1.6338491507411281,
        "Mean Anomaly(deg)": -88.8802078180725,
        "RAAN(deg)": 189.99369926290385,
        "Satellite Name": "Test1 852",
        "Satellite Number": 852,
        "Semi-Major Axis(m)": 6980739.136638005,
        "Time(s)": 150
    },
    {
        "Altitude(m)": 625116.8523271203,
        "Argument of Periapsis(deg)": 0.0016670313461274247,
        "Eccentricity": 0.0,
        "Inclination(deg)": 60.0,
        "Latitude(deg)": -60.08931807122534,
        "Longitude(deg)": 2.826597359548333,
        "Mean Anomaly(deg)": -88.26010167261067,
        "RAAN(deg)": 189.99327921376414,
        "Satellite Name": "Test1 852",
        "Satellite Number": 852,
        "Semi-Major Axis(m)": 6980739.136638005,
        "Time(s)": 160
    },
    {
        "Altitude(m)": 625103.7559968117,
        "Argument of Periapsis(deg)": 0.0017712208052603888,
        "Eccentricity": 0.0,
        "Inclination(deg)": 60.0,
        "Latitude(deg)": -60.05123251204112,
        "Longitude(deg)": 4.016932912834497,
        "Mean Anomaly(deg)": -87.63999552714893,
        "RAAN(deg)": 189.9928591646244,
        "Satellite Name": "Test1 852",
        "Satellite Number": 852,
        "Semi-Major Axis(m)": 6980739.136638005,
        "Time(s)": 170
    },
    {
        "Altitude(m)": 625086.7320435978,
        "Argument of Periapsis(deg)": 0.001875410264393353,
        "Eccentricity": 0.0,
        "Inclination(deg)": 60.0,
        "Latitude(deg)": -60.00170630699752,
        "Longitude(deg)": 5.204013126915141,
        "Mean Anomaly(deg)": -87.019889381687,
        "RAAN(deg)": 189.99243911548464,
        "Satellite Name": "Test1 852",
        "Satellite Number": 852,
        "Semi-Major Axis(m)": 6980739.136638005,
        "Time(s)": 180
    },
    {
        "Altitude(m)": 625065.787153146,
        "Argument of Periapsis(deg)": 0.0019795997235263173,
        "Eccentricity": 0.0,
        "Inclination(deg)": 60.0,
        "Latitude(deg)": -59.94079595770176,
        "Longitude(deg)": 6.387010721788493,
        "Mean Anomaly(deg)": -86.39978323622525,
        "RAAN(deg)": 189.99201906634488,
        "Satellite Name": "Test1 852",
        "Satellite Number": 852,
        "Semi-Major Axis(m)": 6980739.136638005,
        "Time(s)": 190
    }
]